{"type":"FeatureCollection", "features": [
{"type":"Feature","geometry":{"type":"Polygon","coordinates":[[[7.6554281,45.0080385],[7.6588902,45.0162637],[7.6777934,45.016207],[7.683935,45.0233242],[7.6955556,45.0230105],[7.7225913,45.0312048],[7.7326239,45.0377587],[7.7557914,45.0577537],[7.7733388,45.0778731],[7.7650641,45.0824142],[7.7509249,45.0835477],[7.7416236,45.0926101],[7.7509334,45.0973133],[7.7523612,45.1026439],[7.7365784,45.1128682],[7.7351074,45.1195735],[7.7249089,45.1269499],[7.7247903,45.136726],[7.716669,45.1380736],[7.7111503,45.133144],[7.6970911,45.1310377],[7.6840051,45.1354965],[7.6624415,45.1391793],[7.654334,45.1314748],[7.6570955,45.1277475],[7.6526056,45.1232309],[7.6544713,45.1127966],[7.6464241,45.1120354],[7.6228767,45.1138248],[7.6226273,45.1084112],[7.6117834,45.1071377],[7.6142285,45.1000112],[7.6196182,45.0951173],[7.6112068,45.0862898],[7.6113398,45.0825873],[7.6034971,45.0711427],[7.608413,45.070362],[7.6076063,45.0605595],[7.625076,45.0596583],[7.6227602,45.0522308],[7.6173751,45.0489344],[7.6185852,45.0444722],[7.6116114,45.0337465],[7.5867072,45.044852],[7.5842746,45.0360937],[7.60155,45.028296],[7.6005142,45.0187809],[7.5909144,45.0160416],[7.6241516,45.0081274],[7.629015,45.0103643],[7.6411646,45.0073255],[7.6554281,45.0080385]]]},"properties":{"admin_level":"8","boundary":"administrative","name":"Torino","name:azb":"تورین","name:be":"Турын","name:be-tarask":"Турын","name:ca":"Torí","name:de":"Turin","name:en":"Turin","name:es":"Turín","name:fr":"Turin","name:gl":"Turín","name:it":"Torino","name:ja":"トリノ","name:ko":"토리노","name:nl":"Turijn","name:pl":"Turyn","name:sc":"Torinu","name:sk":"Turín","name:sr":"Торино","name:ur":"تورینو","ref:ISTAT":"001272","ref:catasto":"L219","type":"boundary","wikidata":"Q495","wikipedia":"it:Torino","id":"relation/43992"},"id":"relation/43992"}
]}